[{"OBJECT_NAME":"CANVAS","OBJECT_ID":"2026-074J","EPOCH":"2026-04-20T12:19:27.524928","MEAN_MOTION":15.24063382,"ECCENTRICITY":0.00194322,"INCLINATION":60.0251,"RA_OF_ASC_NODE":39.4176,"ARG_OF_PERICENTER":331.9521,"MEAN_ANOMALY":28.0511,"EPHEMERIS_TYPE":0,"CLASSIFICATION_TYPE":"U","NORAD_CAT_ID":68635,"ELEMENT_SET_NO":999,"REV_AT_EPOCH":199,"BSTAR":0.00041778419,"MEAN_MOTION_DOT":0.0001,"MEAN_MOTION_DDOT":0},{"OBJECT_NAME":"QIANFAN-109","OBJECT_ID":"2026-075A","EPOCH":"2026-04-20T19:48:39.540096","MEAN_MOTION":14.19019353,"ECCENTRICITY":0.00144235,"INCLINATION":88.9903,"RA_OF_ASC_NODE":327.1894,"ARG_OF_PERICENTER":169.5646,"MEAN_ANOMALY":190.5846,"EPHEMERIS_TYPE":0,"CLASSIFICATION_TYPE":"U","NORAD_CAT_ID":68636,"ELEMENT_SET_NO":999,"REV_AT_EPOCH":188,"BSTAR":7.3148809e-5,"MEAN_MOTION_DOT":1.67e-6,"MEAN_MOTION_DDOT":0},{"OBJECT_NAME":"QIANFAN-110","OBJECT_ID":"2026-075B","EPOCH":"2026-04-17T22:20:56.754816","MEAN_MOTION":14.21658238,"ECCENTRICITY":0.00145716,"INCLINATION":88.991,"RA_OF_ASC_NODE":327.5202,"ARG_OF_PERICENTER":179.2967,"MEAN_ANOMALY":180.8247,"EPHEMERIS_TYPE":0,"CLASSIFICATION_TYPE":"U","NORAD_CAT_ID":68637,"ELEMENT_SET_NO":999,"REV_AT_EPOCH":147,"BSTAR":0.00011167565,"MEAN_MOTION_DOT":2.6e-6,"MEAN_MOTION_DDOT":0},{"OBJECT_NAME":"QIANFAN-111","OBJECT_ID":"2026-075C","EPOCH":"2026-04-20T12:52:57.118080","MEAN_MOTION":14.19370415,"ECCENTRICITY":0.00159188,"INCLINATION":88.9872,"RA_OF_ASC_NODE":327.2235,"ARG_OF_PERICENTER":170.2122,"MEAN_ANOMALY":189.9382,"EPHEMERIS_TYPE":0,"CLASSIFICATION_TYPE":"U","NORAD_CAT_ID":68638,"ELEMENT_SET_NO":999,"REV_AT_EPOCH":184,"BSTAR":1.6497841e-5,"MEAN_MOTION_DOT":4.9e-7,"MEAN_MOTION_DDOT":0},{"OBJECT_NAME":"QIANFAN-112","OBJECT_ID":"2026-075D","EPOCH":"2026-04-20T19:41:46.482432","MEAN_MOTION":14.19386957,"ECCENTRICITY":0.00154581,"INCLINATION":88.9906,"RA_OF_ASC_NODE":327.1891,"ARG_OF_PERICENTER":173.3681,"MEAN_ANOMALY":186.7716,"EPHEMERIS_TYPE":0,"CLASSIFICATION_TYPE":"U","NORAD_CAT_ID":68639,"ELEMENT_SET_NO":999,"REV_AT_EPOCH":188,"BSTAR":-0.0018368255,"MEAN_MOTION_DOT":-3.845e-5,"MEAN_MOTION_DDOT":0},{"OBJECT_NAME":"QIANFAN-113","OBJECT_ID":"2026-075E","EPOCH":"2026-04-20T12:46:25.991328","MEAN_MOTION":14.19942895,"ECCENTRICITY":0.0015209,"INCLINATION":88.9904,"RA_OF_ASC_NODE":327.2244,"ARG_OF_PERICENTER":173.3657,"MEAN_ANOMALY":186.7738,"EPHEMERIS_TYPE":0,"CLASSIFICATION_TYPE":"U","NORAD_CAT_ID":68640,"ELEMENT_SET_NO":999,"REV_AT_EPOCH":184,"BSTAR":0.00014528461,"MEAN_MOTION_DOT":3.23e-6,"MEAN_MOTION_DDOT":0},{"OBJECT_NAME":"QIANFAN-114","OBJECT_ID":"2026-075F","EPOCH":"2026-04-20T19:24:05.841216","MEAN_MOTION":14.21498524,"ECCENTRICITY":0.00154785,"INCLINATION":88.9905,"RA_OF_ASC_NODE":327.187,"ARG_OF_PERICENTER":172.1563,"MEAN_ANOMALY":187.9873,"EPHEMERIS_TYPE":0,"CLASSIFICATION_TYPE":"U","NORAD_CAT_ID":68641,"ELEMENT_SET_NO":999,"REV_AT_EPOCH":188,"BSTAR":7.0813249e-5,"MEAN_MOTION_DOT":1.7e-6,"MEAN_MOTION_DDOT":0},{"OBJECT_NAME":"QIANFAN-115","OBJECT_ID":"2026-075G","EPOCH":"2026-04-20T19:21:11.703744","MEAN_MOTION":14.20356678,"ECCENTRICITY":0.00150786,"INCLINATION":88.99,"RA_OF_ASC_NODE":327.1856,"ARG_OF_PERICENTER":172.2368,"MEAN_ANOMALY":187.9059,"EPHEMERIS_TYPE":0,"CLASSIFICATION_TYPE":"U","NORAD_CAT_ID":68642,"ELEMENT_SET_NO":999,"REV_AT_EPOCH":188,"BSTAR":0.0026457264,"MEAN_MOTION_DOT":5.684e-5,"MEAN_MOTION_DDOT":0},{"OBJECT_NAME":"QIANFAN-116","OBJECT_ID":"2026-075H","EPOCH":"2026-04-20T19:20:47.570496","MEAN_MOTION":14.23020794,"ECCENTRICITY":0.00149781,"INCLINATION":88.9904,"RA_OF_ASC_NODE":327.1865,"ARG_OF_PERICENTER":171.0887,"MEAN_ANOMALY":189.0574,"EPHEMERIS_TYPE":0,"CLASSIFICATION_TYPE":"U","NORAD_CAT_ID":68643,"ELEMENT_SET_NO":999,"REV_AT_EPOCH":188,"BSTAR":8.0445776e-5,"MEAN_MOTION_DOT":1.96e-6,"MEAN_MOTION_DDOT":0},{"OBJECT_NAME":"QIANFAN-117","OBJECT_ID":"2026-075J","EPOCH":"2026-04-20T14:22:38.227584","MEAN_MOTION":14.20548421,"ECCENTRICITY":0.0012533,"INCLINATION":88.9923,"RA_OF_ASC_NODE":327.2095,"ARG_OF_PERICENTER":180.6056,"MEAN_ANOMALY":179.5122,"EPHEMERIS_TYPE":0,"CLASSIFICATION_TYPE":"U","NORAD_CAT_ID":68644,"ELEMENT_SET_NO":999,"REV_AT_EPOCH":185,"BSTAR":5.4190977e-5,"MEAN_MOTION_DOT":1.31e-6,"MEAN_MOTION_DDOT":0},{"OBJECT_NAME":"QIANFAN-118","OBJECT_ID":"2026-075K","EPOCH":"2026-04-20T15:58:21.607968","MEAN_MOTION":14.2189816,"ECCENTRICITY":0.00148175,"INCLINATION":88.9903,"RA_OF_ASC_NODE":327.2028,"ARG_OF_PERICENTER":170.6065,"MEAN_ANOMALY":189.5406,"EPHEMERIS_TYPE":0,"CLASSIFICATION_TYPE":"U","NORAD_CAT_ID":68645,"ELEMENT_SET_NO":999,"REV_AT_EPOCH":186,"BSTAR":7.1926649e-5,"MEAN_MOTION_DOT":1.73e-6,"MEAN_MOTION_DDOT":0},{"OBJECT_NAME":"QIANFAN-119","OBJECT_ID":"2026-075L","EPOCH":"2026-04-20T15:54:59.634144","MEAN_MOTION":14.22769982,"ECCENTRICITY":0.00147349,"INCLINATION":88.9906,"RA_OF_ASC_NODE":327.2026,"ARG_OF_PERICENTER":171.9271,"MEAN_ANOMALY":188.2161,"EPHEMERIS_TYPE":0,"CLASSIFICATION_TYPE":"U","NORAD_CAT_ID":68646,"ELEMENT_SET_NO":999,"REV_AT_EPOCH":186,"BSTAR":7.2087591e-5,"MEAN_MOTION_DOT":1.76e-6,"MEAN_MOTION_DDOT":0},{"OBJECT_NAME":"QIANFAN-120","OBJECT_ID":"2026-075M","EPOCH":"2026-04-20T20:56:04.205760","MEAN_MOTION":14.22211799,"ECCENTRICITY":0.00148492,"INCLINATION":88.9906,"RA_OF_ASC_NODE":327.178,"ARG_OF_PERICENTER":171.2529,"MEAN_ANOMALY":188.8924,"EPHEMERIS_TYPE":0,"CLASSIFICATION_TYPE":"U","NORAD_CAT_ID":68647,"ELEMENT_SET_NO":999,"REV_AT_EPOCH":189,"BSTAR":7.6412712e-5,"MEAN_MOTION_DOT":1.84e-6,"MEAN_MOTION_DDOT":0},{"OBJECT_NAME":"QIANFAN-121","OBJECT_ID":"2026-075N","EPOCH":"2026-04-20T20:53:59.181504","MEAN_MOTION":14.22350766,"ECCENTRICITY":0.00142664,"INCLINATION":88.9906,"RA_OF_ASC_NODE":327.1777,"ARG_OF_PERICENTER":172.2923,"MEAN_ANOMALY":187.8491,"EPHEMERIS_TYPE":0,"CLASSIFICATION_TYPE":"U","NORAD_CAT_ID":68648,"ELEMENT_SET_NO":999,"REV_AT_EPOCH":189,"BSTAR":9.0729421e-5,"MEAN_MOTION_DOT":2.16e-6,"MEAN_MOTION_DDOT":0},{"OBJECT_NAME":"QIANFAN-122","OBJECT_ID":"2026-075P","EPOCH":"2026-04-20T20:51:29.435616","MEAN_MOTION":14.22895198,"ECCENTRICITY":0.00144238,"INCLINATION":88.9905,"RA_OF_ASC_NODE":327.1775,"ARG_OF_PERICENTER":171.4827,"MEAN_ANOMALY":188.6613,"EPHEMERIS_TYPE":0,"CLASSIFICATION_TYPE":"U","NORAD_CAT_ID":68649,"ELEMENT_SET_NO":999,"REV_AT_EPOCH":189,"BSTAR":-4.4907004e-5,"MEAN_MOTION_DOT":-8.6e-7,"MEAN_MOTION_DDOT":0},{"OBJECT_NAME":"QIANFAN-123","OBJECT_ID":"2026-075Q","EPOCH":"2026-04-20T19:23:01.567392","MEAN_MOTION":14.20190222,"ECCENTRICITY":0.0014918,"INCLINATION":88.99,"RA_OF_ASC_NODE":327.1861,"ARG_OF_PERICENTER":171.5068,"MEAN_ANOMALY":188.6377,"EPHEMERIS_TYPE":0,"CLASSIFICATION_TYPE":"U","NORAD_CAT_ID":68650,"ELEMENT_SET_NO":999,"REV_AT_EPOCH":185,"BSTAR":0.0014219997,"MEAN_MOTION_DOT":3.051e-5,"MEAN_MOTION_DDOT":0},{"OBJECT_NAME":"QIANFAN-124","OBJECT_ID":"2026-075R","EPOCH":"2026-04-20T20:50:43.410336","MEAN_MOTION":14.227152,"ECCENTRICITY":0.00149822,"INCLINATION":88.9905,"RA_OF_ASC_NODE":327.1774,"ARG_OF_PERICENTER":171.3197,"MEAN_ANOMALY":188.8257,"EPHEMERIS_TYPE":0,"CLASSIFICATION_TYPE":"U","NORAD_CAT_ID":68651,"ELEMENT_SET_NO":999,"REV_AT_EPOCH":189,"BSTAR":-8.8233029e-5,"MEAN_MOTION_DOT":-1.83e-6,"MEAN_MOTION_DDOT":0}]
