CANVAS                  
1 68635U 26074J   26110.51351302  .00010000  00000+0  41778-3 0  9997
2 68635  60.0251  39.4176 0019432 331.9521  28.0511 15.24063382  1997
QIANFAN-109             
1 68636U 26075A   26110.82545764  .00000167  00000+0  73149-4 0  9991
2 68636  88.9903 327.1894 0014423 169.5646 190.5846 14.19019353  1889
QIANFAN-110             
1 68637U 26075B   26107.93121244  .00000260  00000+0  11168-3 0  9999
2 68637  88.9910 327.5202 0014571 179.2967 180.8247 14.21658238  1479
QIANFAN-111             
1 68638U 26075C   26110.53677220  .00000049  00000+0  16498-4 0  9997
2 68638  88.9872 327.2235 0015918 170.2122 189.9382 14.19370415  1846
QIANFAN-112             
1 68639U 26075D   26110.82067688 -.00003845  00000+0 -18368-2 0  9996
2 68639  88.9906 327.1891 0015458 173.3681 186.7716 14.19386957  1883
QIANFAN-113             
1 68640U 26075E   26110.53224527  .00000323  00000+0  14528-3 0  9994
2 68640  88.9904 327.2244 0015209 173.3657 186.7738 14.19942895  1842
QIANFAN-114             
1 68641U 26075F   26110.80840094  .00000170  00000+0  70813-4 0  9998
2 68641  88.9905 327.1870 0015478 172.1563 187.9873 14.21498524  1884
QIANFAN-115             
1 68642U 26075G   26110.80638546  .00005684  00000+0  26457-2 0  9994
2 68642  88.9900 327.1856 0015078 172.2368 187.9059 14.20356678  1882
QIANFAN-116             
1 68643U 26075H   26110.80610614  .00000196  00000+0  80446-4 0  9994
2 68643  88.9904 327.1865 0014978 171.0887 189.0574 14.23020794  1883
QIANFAN-117             
1 68644U 26075J   26110.59905356  .00000131  00000+0  54191-4 0  9998
2 68644  88.9923 327.2095 0012533 180.6056 179.5122 14.20548421  1859
QIANFAN-118             
1 68645U 26075K   26110.66552787  .00000173  00000+0  71927-4 0  9995
2 68645  88.9903 327.2028 0014817 170.6065 189.5406 14.21898160  1866
QIANFAN-119             
1 68646U 26075L   26110.66319021  .00000176  00000+0  72088-4 0  9990
2 68646  88.9906 327.2026 0014734 171.9271 188.2161 14.22769982  1863
QIANFAN-120             
1 68647U 26075M   26110.87227090  .00000184  00000+0  76413-4 0  9993
2 68647  88.9906 327.1780 0014849 171.2529 188.8924 14.22211799  1890
QIANFAN-121             
1 68648U 26075N   26110.87082386  .00000216  00000+0  90729-4 0  9993
2 68648  88.9906 327.1777 0014266 172.2923 187.8491 14.22350766  1895
QIANFAN-122             
1 68649U 26075P   26110.86909069 -.00000086  00000+0 -44907-4 0  9993
2 68649  88.9905 327.1775 0014423 171.4827 188.6613 14.22895198  1890
QIANFAN-123             
1 68650U 26075Q   26110.80765703  .00003051  00000+0  14220-2 0  9990
2 68650  88.9900 327.1861 0014918 171.5068 188.6377 14.20190222  1857
QIANFAN-124             
1 68651U 26075R   26110.86855799 -.00000183  00000+0 -88233-4 0  9994
2 68651  88.9905 327.1774 0014982 171.3197 188.8257 14.22715200  1892
